NUSAT-49 (KLARA DAN VO*)
1 60500U 24149AJ  26068.79810190  .00012912  00000+0  43568-3 0  9991
2 60500  97.3807 150.7380 0001132 286.7761  73.3356 15.30828857 86935
STARLINK-34687          
1 64909U 25157F   26068.17375094  .00008728  00000+0  30651-3 0  9998
2 64909  53.1608 348.1452 0001068  88.0554 272.0569 15.30195600 35992
